0 TIANLIAN 1-02
1 37737U 11032A   13281.78485340 -.00000025  00000-0  00000+0 0  6307
2 37737 000.0087 105.3964 0001233 142.5152 223.2204 01.00274023  8250
0 TIANLIAN 1-02
1 37737U 11032A   13282.80845037 -.00000028  00000-0  00000+0 0  6318
2 37737 000.0124 100.4523 0001314 148.8230 231.3688 01.00274189  8265
0 TIANLIAN 1-02
1 37737U 11032A   13284.43418929 -.00000033  00000-0  00000+0 0  6322
2 37737 000.0340 110.4826 0002034 151.3854 085.6622 01.00274584  8271
0 TIANLIAN 1-02
1 37737U 11032A   13285.71798596 -.00000036  00000-0  00000+0 0  6340
2 37737 000.0479 067.8657 0002168 194.9065 188.1974 01.00274684  8298
0 TIANLIAN 1-02
1 37737U 11032A   13286.78623561 -.00000038  00000-0  00000+0 0  6350
2 37737 000.0517 054.1869 0002247 210.0120 212.4010 01.00274776  8301
0 TIANLIAN 1-02
1 37737U 11032A   13287.80083397 -.00000038  00000-0  00000+0 0  6362
2 37737 000.0536 053.2581 0002285 211.7597 217.8453 01.00274874  8311
0 TIANLIAN 1-02
1 37737U 11032A   13289.46039939 -.00000036  00000-0  00000+0 0  6378
2 37737 000.0562 052.9517 0002213 212.0070 097.0002 01.00275096  8333
0 TIANLIAN 1-02
1 37737U 11032A   13289.72288345  .00000000  00000-0  10000-3 0  6403
2 37737 000.0468 068.9611 0003052 200.9411 186.8116 01.00272346  8335
0 TIANLIAN 1-02
1 37737U 11032A   13289.76147778 -.00000036  00000-0  00000+0 0  6383
2 37737 000.0529 066.3337 0002135 193.7265 210.5891 01.00275215  8330
0 TIANLIAN 1-02
1 37737U 11032A   13290.77359394 -.00000034  00000-0  00000+0 0  6394
2 37737 000.0559 069.6377 0002231 191.0647 215.3168 01.00275352  8348
0 TIANLIAN 1-02
1 37737U 11032A   13291.80242235 -.00000031  00000-0  00000+0 0  6403
2 37737 000.0587 070.4746 0002236 190.5096 226.4398 01.00275507  8357
0 TIANLIAN 1-02
1 37737U 11032A   13293.43418572 -.00000028  00000-0  00000+0 0  6410
2 37737 000.0615 070.0544 0002248 190.9487 095.4857 01.00275759  8366
0 TIANLIAN 1-02
1 37737U 11032A   13294.46423750 -.00000026  00000-0  00000+0 0  6427
2 37737 000.0634 069.8261 0002266 191.3578 107.1532 01.00275919  8386
0 TIANLIAN 1-02
1 37737U 11032A   13294.71035402 -.00000026  00000-0  00000+0 0  6439
2 37737 000.0651 061.7776 0002481 202.1268 193.2782 01.00275918  8385
0 TIANLIAN 1-02
1 37737U 11032A   13294.71035402 -.00000026  00000-0  00000+0 0  6440
2 37737 000.0651 061.7776 0002481 202.1268 193.2782 01.00275918  8385
